[{"OBJECT_NAME":"STARLINK-34074","OBJECT_ID":"2025-110D","EPOCH":"2026-03-09T06:22:28.578720","MEAN_MOTION":15.30194433,"ECCENTRICITY":0.00015623,"INCLINATION":53.1611,"RA_OF_ASC_NODE":29.0141,"ARG_OF_PERICENTER":91.1646,"MEAN_ANOMALY":268.9534,"EPHEMERIS_TYPE":0,"CLASSIFICATION_TYPE":"U","NORAD_CAT_ID":64099,"ELEMENT_SET_NO":999,"REV_AT_EPOCH":4581,"BSTAR":0.00032114149,"MEAN_MOTION_DOT":9.162e-5,"MEAN_MOTION_DDOT":0},{"OBJECT_NAME":"SL-3 R\/B","OBJECT_ID":"1982-079B","EPOCH":"2026-03-09T22:18:18.158976","MEAN_MOTION":15.24805533,"ECCENTRICITY":0.00250364,"INCLINATION":81.1481,"RA_OF_ASC_NODE":192.7939,"ARG_OF_PERICENTER":164.0597,"MEAN_ANOMALY":196.143,"EPHEMERIS_TYPE":0,"CLASSIFICATION_TYPE":"U","NORAD_CAT_ID":13403,"ELEMENT_SET_NO":999,"REV_AT_EPOCH":37773,"BSTAR":0.00032485557,"MEAN_MOTION_DOT":8.157e-5,"MEAN_MOTION_DDOT":0}]
